[{"OBJECT_NAME":"STARLINK-1526","OBJECT_ID":"2020-055C","EPOCH":"2026-03-10T00:00:02.999808","MEAN_MOTION":15.19094638,"ECCENTRICITY":8.938e-5,"INCLINATION":53.1067,"RA_OF_ASC_NODE":124.7929,"ARG_OF_PERICENTER":56.7447,"MEAN_ANOMALY":353.5398,"EPHEMERIS_TYPE":0,"CLASSIFICATION_TYPE":"U","NORAD_CAT_ID":46029,"ELEMENT_SET_NO":999,"REV_AT_EPOCH":569,"BSTAR":0.0056326704,"MEAN_MOTION_DOT":0.00121352,"MEAN_MOTION_DDOT":0},{"OBJECT_NAME":"OBJECT B","OBJECT_ID":"2025-055B","EPOCH":"2026-03-09T22:16:45.727392","MEAN_MOTION":15.18688893,"ECCENTRICITY":0.0012288,"INCLINATION":97.6347,"RA_OF_ASC_NODE":209.4031,"ARG_OF_PERICENTER":141.9281,"MEAN_ANOMALY":218.2824,"EPHEMERIS_TYPE":0,"CLASSIFICATION_TYPE":"U","NORAD_CAT_ID":63292,"ELEMENT_SET_NO":999,"REV_AT_EPOCH":5406,"BSTAR":0.00077133198,"MEAN_MOTION_DOT":0.00015979,"MEAN_MOTION_DDOT":0}]
